{
  "type": "FeatureCollection",
  "features": [
    {
      "type": "Feature",
      "properties": {
        "norad_id": 26766,
        "name": "INTELSAT 10 (IS-10)",
        "group": "intelsat",
        "lat": 3.651981481575682,
        "lon": 85.7274997075308,
        "alt_km": 36155.00635119022,
        "timestamp": "2025-12-20T16:47:35.958511+00:00",
        "meta_object_name": "INTELSAT 10 (IS-10)",
        "meta_object_id": "2001-019A",
        "meta_epoch": "2025-12-20T12:07:39.749088",
        "meta_mean_motion": 0.99074466,
        "meta_eccentricity": 0.0007767,
        "meta_inclination": 8.6468,
        "meta_ra_of_asc_node": 61.0789,
        "meta_arg_of_pericenter": 228.9556,
        "meta_mean_anomaly": 86.574,
        "meta_ephemeris_type": 0,
        "meta_classification_type": "U",
        "meta_norad_cat_id": 26766,
        "meta_element_set_no": 999,
        "meta_rev_at_epoch": 4380,
        "meta_bstar": 0,
        "meta_mean_motion_dot": -1.08e-06,
        "meta_mean_motion_ddot": 0,
        "tle_line1": "1 26766U 01019A   25354.50532117 -.00000108  00000+0  00000+0 0  9999",
        "tle_line2": "2 26766   8.6468  61.0789 0007767 228.9556  86.5740  0.99074466 43806"
      },
      "geometry": {
        "type": "Point",
        "coordinates": [
          85.7274997075308,
          3.651981481575682
        ]
      }
    },
    {
      "type": "Feature",
      "properties": {
        "norad_id": 26900,
        "name": "INTELSAT 902 (IS-902)",
        "group": "intelsat",
        "lat": -3.4589436355416714,
        "lon": -68.8231967157257,
        "alt_km": 35770.42735717256,
        "timestamp": "2025-12-20T16:47:35.958536+00:00",
        "meta_object_name": "INTELSAT 902 (IS-902)",
        "meta_object_id": "2001-039A",
        "meta_epoch": "2025-12-15T13:09:02.081664",
        "meta_mean_motion": 1.0027087,
        "meta_eccentricity": 0.00045028,
        "meta_inclination": 5.6536,
        "meta_ra_of_asc_node": 74.0372,
        "meta_arg_of_pericenter": 189.6359,
        "meta_mean_anomaly": 327.9329,
        "meta_ephemeris_type": 0,
        "meta_classification_type": "U",
        "meta_norad_cat_id": 26900,
        "meta_element_set_no": 999,
        "meta_rev_at_epoch": 8885,
        "meta_bstar": 0,
        "meta_mean_motion_dot": -2.65e-06,
        "meta_mean_motion_ddot": 0,
        "tle_line1": "1 26900U 01039A   25349.54794076 -.00000265  00000+0  00000+0 0  9997",
        "tle_line2": "2 26900   5.6536  74.0372 0004502 189.6359 327.9329  1.00270870 88858"
      },
      "geometry": {
        "type": "Point",
        "coordinates": [
          -68.8231967157257,
          -3.4589436355416714
        ]
      }
    },
    {
      "type": "Feature",
      "properties": {
        "norad_id": 27380,
        "name": "INTELSAT 904 (IS-904)",
        "group": "intelsat",
        "lat": -5.543709241129346,
        "lon": -50.241373996903704,
        "alt_km": 35779.61964779289,
        "timestamp": "2025-12-20T16:47:35.958552+00:00",
        "meta_object_name": "INTELSAT 904 (IS-904)",
        "meta_object_id": "2002-007A",
        "meta_epoch": "2025-12-20T00:12:38.708640",
        "meta_mean_motion": 1.00271119,
        "meta_eccentricity": 0.00017883,
        "meta_inclination": 6.4716,
        "meta_ra_of_asc_node": 71.3489,
        "meta_arg_of_pericenter": 248.0569,
        "meta_mean_anomaly": 101.1022,
        "meta_ephemeris_type": 0,
        "meta_classification_type": "U",
        "meta_norad_cat_id": 27380,
        "meta_element_set_no": 999,
        "meta_rev_at_epoch": 4996,
        "meta_bstar": 0,
        "meta_mean_motion_dot": -2.07e-06,
        "meta_mean_motion_ddot": 0,
        "tle_line1": "1 27380U 02007A   25354.00878135 -.00000207  00000+0  00000+0 0  9998",
        "tle_line2": "2 27380   6.4716  71.3489 0001788 248.0569 101.1022  1.00271119 49963"
      },
      "geometry": {
        "type": "Point",
        "coordinates": [
          -50.241373996903704,
          -5.543709241129346
        ]
      }
    },
    {
      "type": "Feature",
      "properties": {
        "norad_id": 27426,
        "name": "DIRECTV 5 (TEMPO 1)",
        "group": "intelsat",
        "lat": 1.9369689764010785,
        "lon": -128.65027274067106,
        "alt_km": 35776.50870426549,
        "timestamp": "2025-12-20T16:47:35.958566+00:00",
        "meta_object_name": "DIRECTV 5 (TEMPO 1)",
        "meta_object_id": "2002-023A",
        "meta_epoch": "2025-12-20T10:12:17.667072",
        "meta_mean_motion": 1.00271343,
        "meta_eccentricity": 0.0003112,
        "meta_inclination": 4.4204,
        "meta_ra_of_asc_node": 77.5629,
        "meta_arg_of_pericenter": 198.0505,
        "meta_mean_anomaly": 216.5994,
        "meta_ephemeris_type": 0,
        "meta_classification_type": "U",
        "meta_norad_cat_id": 27426,
        "meta_element_set_no": 999,
        "meta_rev_at_epoch": 8633,
        "meta_bstar": 0,
        "meta_mean_motion_dot": -3.7e-07,
        "meta_mean_motion_ddot": 0,
        "tle_line1": "1 27426U 02023A   25354.42520448 -.00000037  00000+0  00000+0 0  9995",
        "tle_line2": "2 27426   4.4204  77.5629 0003112 198.0505 216.5994  1.00271343 86335"
      },
      "geometry": {
        "type": "Point",
        "coordinates": [
          -128.65027274067106,
          1.9369689764010785
        ]
      }
    },
    {
      "type": "Feature",
      "properties": {
        "norad_id": 27438,
        "name": "INTELSAT 905 (IS-905)",
        "group": "intelsat",
        "lat": 4.658161757244752,
        "lon": -155.63383852916408,
        "alt_km": 35781.4037454356,
        "timestamp": "2025-12-20T16:47:35.958579+00:00",
        "meta_object_name": "INTELSAT 905 (IS-905)",
        "meta_object_id": "2002-027A",
        "meta_epoch": "2025-12-20T10:52:51.498912",
        "meta_mean_motion": 1.00272487,
        "meta_eccentricity": 0.0002664,
        "meta_inclination": 6.3037,
        "meta_ra_of_asc_node": 71.9674,
        "meta_arg_of_pericenter": 202.299,
        "meta_mean_anomaly": 201.0262,
        "meta_ephemeris_type": 0,
        "meta_classification_type": "U",
        "meta_norad_cat_id": 27438,
        "meta_element_set_no": 999,
        "meta_rev_at_epoch": 4957,
        "meta_bstar": 0,
        "meta_mean_motion_dot": 1.12e-06,
        "meta_mean_motion_ddot": 0,
        "tle_line1": "1 27438U 02027A   25354.45337383  .00000112  00000+0  00000+0 0  9992",
        "tle_line2": "2 27438   6.3037  71.9674 0002664 202.2990 201.0262  1.00272487 49570"
      },
      "geometry": {
        "type": "Point",
        "coordinates": [
          -155.63383852916408,
          4.658161757244752
        ]
      }
    },
    {
      "type": "Feature",
      "properties": {
        "norad_id": 27445,
        "name": "GALAXY 3C (G-3C)",
        "group": "intelsat",
        "lat": 0.7610314510368804,
        "lon": -113.3989814655141,
        "alt_km": 35785.88029482495,
        "timestamp": "2025-12-20T16:47:35.958592+00:00",
        "meta_object_name": "GALAXY 3C (G-3C)",
        "meta_object_id": "2002-030A",
        "meta_epoch": "2025-12-20T11:56:05.482752",
        "meta_mean_motion": 1.00271782,
        "meta_eccentricity": 0.0001109,
        "meta_inclination": 3.2821,
        "meta_ra_of_asc_node": 80.4263,
        "meta_arg_of_pericenter": 77.7838,
        "meta_mean_anomaly": 15.2839,
        "meta_ephemeris_type": 0,
        "meta_classification_type": "U",
        "meta_norad_cat_id": 27445,
        "meta_element_set_no": 999,
        "meta_rev_at_epoch": 4470,
        "meta_bstar": 0,
        "meta_mean_motion_dot": -1.31e-06,
        "meta_mean_motion_ddot": 0,
        "tle_line1": "1 27445U 02030A   25354.49728568 -.00000131  00000+0  00000+0 0  9999",
        "tle_line2": "2 27445   3.2821  80.4263 0001109  77.7838  15.2839  1.00271782 44705"
      },
      "geometry": {
        "type": "Point",
        "coordinates": [
          -113.3989814655141,
          0.7610314510368804
        ]
      }
    },
    {
      "type": "Feature",
      "properties": {
        "norad_id": 27513,
        "name": "INTELSAT 906 (IS-906)",
        "group": "intelsat",
        "lat": -2.6176761556556696,
        "lon": 45.718723687463964,
        "alt_km": 35804.074939243765,
        "timestamp": "2025-12-20T16:47:35.958604+00:00",
        "meta_object_name": "INTELSAT 906 (IS-906)",
        "meta_object_id": "2002-041A",
        "meta_epoch": "2025-12-19T20:34:46.617600",
        "meta_mean_motion": 1.00272721,
        "meta_eccentricity": 0.00063182,
        "meta_inclination": 5.3475,
        "meta_ra_of_asc_node": 75.1475,
        "meta_arg_of_pericenter": 198.3862,
        "meta_mean_anomaly": 187.9892,
        "meta_ephemeris_type": 0,
        "meta_classification_type": "U",
        "meta_norad_cat_id": 27513,
        "meta_element_set_no": 999,
        "meta_rev_at_epoch": 8523,
        "meta_bstar": 0,
        "meta_mean_motion_dot": 3.3e-07,
        "meta_mean_motion_ddot": 0,
        "tle_line1": "1 27513U 02041A   25353.85748400  .00000033  00000+0  00000+0 0  9993",
        "tle_line2": "2 27513   5.3475  75.1475 0006318 198.3862 187.9892  1.00272721 85232"
      },
      "geometry": {
        "type": "Point",
        "coordinates": [
          45.718723687463964,
          -2.6176761556556696
        ]
      }
    }
  ]
}